NORAD_CAT_ID,OBJECT_NAME,OBJECT_TYPE,EPOCH,MEAN_MOTION,ECCENTRICITY,INCLINATION,RA_OF_ASC_NODE,ARG_OF_PERICENTER,MEAN_ANOMALY,BSTAR,MEAN_MOTION_DOT,MEAN_MOTION_DDOT,TLE_LINE0,TLE_LINE1,TLE_LINE2,SEMIMAJOR_AXIS,PERIOD,APOGEE,PERIGEE,DECAYED
56791.0,STARLINK-5977,PAYLOAD,2024-07-17 14:10:10,14.98315294,0.0002779,69.9995,57.4223,270.5485,89.5355,-0.00015538,-1.946e-05,0.0,0 STARLINK-5977,1 56791U 23078AA  24199.59039413 -.00001946  00000-0 -15538-3 0  9994,2 56791  69.9995  57.4223 0002779 270.5485  89.5355 14.98315294 62791,6950.238,96.108,574.035,570.172,0.0
56791.0,STARLINK-5977,PAYLOAD,2024-07-17 20:34:42,14.98317537,0.0003049,69.9993,56.7491,270.964,89.117,-0.00012619,-1.598e-05,0.0,0 STARLINK-5977,1 56791U 23078AA  24199.85743340 -.00001598  00000-0 -12619-3 0  9994,2 56791  69.9993  56.7491 0003049 270.9640  89.1170 14.98317537 63093,6950.231,96.108,574.216,569.977,0.0
56791.0,STARLINK-5977,PAYLOAD,2024-07-17 22:10:50,14.98320785,0.0002979,69.9994,56.5815,266.919,93.1628,-8.7323e-05,-1.135e-05,0.0,0 STARLINK-5977,1 56791U 23078AA  24199.92419044 -.00001135  00000-0 -87323-4 0  9995,2 56791  69.9994  56.5815 0002979 266.9190  93.1628 14.98320785 62842,6950.221,96.108,574.157,570.016,0.0
56791.0,STARLINK-5977,PAYLOAD,2024-07-18 07:47:38,14.98325359,0.0002885,69.9995,55.5705,270.8808,89.2021,-6.2242e-05,-8.35e-06,0.0,0 STARLINK-5977,1 56791U 23078AA  24200.32474907 -.00000835  00000-0 -62242-4 0  9990,2 56791  69.9995  55.5705 0002885 270.8808  89.2021 14.98325359 63167,6950.207,96.107,574.077,570.067,0.0
56791.0,STARLINK-5977,PAYLOAD,2024-07-18 20:36:42,14.98334133,0.0003002,69.9992,54.224,267.7457,92.3358,-0.00010832,-1.385e-05,0.0,0 STARLINK-5977,1 56791U 23078AA  24200.85882499 -.00001385  00000-0 -10832-3 0  9995,2 56791  69.9992  54.2240 0003002 267.7457  92.3358 14.98334133 63248,6950.18,96.107,574.132,569.959,0.0
56791.0,STARLINK-5977,PAYLOAD,2024-07-18 22:12:50,14.98337886,0.0002958,69.9992,54.0554,265.3886,94.6935,-6.3533e-05,-8.51e-06,0.0,0 STARLINK-5977,1 56791U 23078AA  24200.92558112 -.00000851  00000-0 -63533-4 0  9999,2 56791  69.9992  54.0554 0002958 265.3886  94.6935 14.98337886 62998,6950.169,96.106,574.089,569.978,0.0
56791.0,STARLINK-5977,PAYLOAD,2024-07-19 07:49:38,14.98337704,0.0002984,69.9992,53.0446,267.3095,92.7722,-7.3461e-05,-9.7e-06,0.0,0 STARLINK-5977,1 56791U 23078AA  24201.32614032 -.00000970  00000-0 -73461-4 0  9991,2 56791  69.9992  53.0446 0002984 267.3095  92.7722 14.98337704 63050,6950.169,96.107,574.108,569.96,0.0
56791.0,STARLINK-5977,PAYLOAD,2024-07-19 20:38:43,14.9832563,0.0002849,69.9993,51.6981,269.9569,90.1263,0.00017613,2.009e-05,0.0,0 STARLINK-5977,1 56791U 23078AA  24201.86022416  .00002009  00000-0  17613-3 0  9998,2 56791  69.9993  51.6981 0002849 269.9569  90.1263 14.98325630 63397,6950.206,96.107,574.052,570.091,0.0
56791.0,STARLINK-5977,PAYLOAD,2024-07-19 22:14:51,14.98327517,0.0002824,69.9993,51.5299,270.2135,89.8701,0.00019303,2.211e-05,0.0,0 STARLINK-5977,1 56791U 23078AA  24201.92698286  .00002211  00000-0  19303-3 0  9992,2 56791  69.9993  51.5299 0002824 270.2135  89.8701 14.98327517 63146,6950.201,96.107,574.028,570.103,0.0
56791.0,STARLINK-5977,PAYLOAD,2024-07-20 14:16:12,14.98330342,0.0002695,69.9999,49.8463,270.5318,89.5533,4.4557e-05,4.39e-06,0.0,0 STARLINK-5977,1 56791U 23078AA  24202.59458626  .00000439  00000-0  44557-4 0  9998,2 56791  69.9999  49.8463 0002695 270.5318  89.5533 14.98330342 63248,6950.192,96.107,573.93,570.184,0.0
56791.0,STARLINK-5977,PAYLOAD,2024-07-20 20:40:44,14.98328503,0.0002803,70.0001,49.1734,271.416,88.6678,8.1044e-05,8.74e-06,0.0,0 STARLINK-5977,1 56791U 23078AA  24202.86162641  .00000874  00000-0  81044-4 0  9992,2 56791  70.0001  49.1734 0002803 271.4160  88.6678 14.98328503 63544,6950.198,96.107,574.011,570.114,0.0
56791.0,STARLINK-5977,PAYLOAD,2024-07-20 22:16:52,14.983315,0.0002804,70.0,49.0051,271.2132,88.8706,2.0625e-05,1.53e-06,0.0,0 STARLINK-5977,1 56791U 23078AA  24202.92838593  .00000153  00000-0  20625-4 0  9993,2 56791  70.0000  49.0051 0002804 271.2132  88.8706 14.98331500 63299,6950.188,96.107,574.002,570.104,0.0
56791.0,STARLINK-5977,PAYLOAD,2024-07-21 14:18:13,14.98332814,0.0002777,70.0003,47.3219,271.3308,88.7532,3.5066e-05,3.25e-06,0.0,0 STARLINK-5977,1 56791U 23078AA  24203.59598391  .00000325  00000-0  35066-4 0  9992,2 56791  70.0003  47.3219 0002777 271.3308  88.7532 14.98332814 63390,6950.184,96.107,573.979,570.119,0.0
56791.0,STARLINK-5977,PAYLOAD,2024-07-21 20:42:45,14.98331032,0.0002816,70.0003,46.6488,270.9336,89.1501,-1.9692e-05,-3.28e-06,0.0,0 STARLINK-5977,1 56791U 23078AA  24203.86302619 -.00000328  00000-0 -19692-4 0  9990,2 56791  70.0003  46.6488 0002816 270.9336  89.1501 14.98331032 63695,6950.19,96.107,574.012,570.098,0.0
56791.0,STARLINK-5977,PAYLOAD,2024-07-21 22:18:53,14.98331578,0.0002812,70.0003,46.4805,270.9433,89.1404,-1.3507e-05,-2.54e-06,0.0,0 STARLINK-5977,1 56791U 23078AA  24203.92978560 -.00000254  00000-0 -13507-4 0  9998,2 56791  70.0003  46.4805 0002812 270.9433  89.1404 14.98331578 63440,6950.188,96.107,574.007,570.099,0.0
56791.0,STARLINK-5977,PAYLOAD,2024-07-22 12:44:05,14.98332357,0.000292,70.0003,44.9666,266.6834,93.3991,6.4931e-05,6.82e-06,0.0,0 STARLINK-5977,1 56791U 23078AA  24204.53062199  .00000682  00000-0  64931-4 0  9998,2 56791  70.0003  44.9666 0002920 266.6834  93.3991 14.98332357 63539,6950.186,96.107,574.08,570.021,0.0
56791.0,STARLINK-5977,PAYLOAD,2024-07-22 22:20:53,14.98334724,0.0002898,70.0003,43.9568,266.0784,94.0044,8.5091e-05,9.23e-06,0.0,0 STARLINK-5977,1 56791U 23078AA  24204.93117932  .00000923  00000-0  85091-4 0  9996,2 56791  70.0003  43.9568 0002898 266.0784  94.0044 14.98334724 63594,6950.178,96.107,574.057,570.029,0.0
56791.0,STARLINK-5977,PAYLOAD,2024-07-22 23:57:01,14.98335147,0.0002899,70.0003,43.7884,266.1693,93.9134,8.8574e-05,9.64e-06,0.0,0 STARLINK-5977,1 56791U 23078AA  24204.99793883  .00000964  00000-0  88574-4 0  9991,2 56791  70.0003  43.7884 0002899 266.1693  93.9134 14.98335147 63862,6950.177,96.107,574.057,570.027,0.0
56791.0,STARLINK-5977,PAYLOAD,2024-07-23 22:22:55,14.98323241,0.0002757,70.0006,41.4307,268.7632,91.3211,-4.0311e-06,-1.41e-06,0.0,0 STARLINK-5977,1 56791U 23078AA  24205.93258982 -.00000141  00000-0 -40311-5 0  9999,2 56791  70.0006  41.4307 0002757 268.7632  91.3211 14.98323241 63741,6950.214,96.107,573.995,570.163,0.0
56791.0,STARLINK-5977,PAYLOAD,2024-07-24 12:48:07,14.98334682,0.0002501,70.0021,39.9157,271.2203,88.867,4.4959e-05,4.44e-06,0.0,0 STARLINK-5977,1 56791U 23078AA  24206.53342247  .00000444  00000-0  44959-4 0  9999,2 56791  70.0021  39.9157 0002501 271.2203  88.8670 14.98334682 64093,6950.178,96.107,573.782,570.305,0.0
56791.0,STARLINK-5977,PAYLOAD,2024-07-24 22:24:55,14.98335449,0.0002778,70.0017,38.905,273.5461,86.5381,2.9666e-05,2.61e-06,0.0,0 STARLINK-5977,1 56791U 23078AA  24206.93398123  .00000261  00000-0  29666-4 0  9992,2 56791  70.0017  38.9050 0002778 273.5461  86.5381 14.98335449 63899,6950.176,96.107,573.972,570.11,0.0
56791.0,STARLINK-5977,PAYLOAD,2024-07-25 12:50:08,14.98327457,0.0002737,70.001,37.3887,274.9663,85.1184,0.00010881,1.205e-05,0.0,0 STARLINK-5977,1 56791U 23078AA  24207.53482382  .00001205  00000-0  10881-3 0  9997,2 56791  70.0010  37.3887 0002737 274.9663  85.1184 14.98327457 64243,6950.201,96.107,573.968,570.163,0.0
56791.0,STARLINK-5977,PAYLOAD,2024-07-26 19:16:41,14.98335963,0.0002913,69.9957,34.1922,266.3253,93.7573,3.5853e-05,3.35e-06,0.0,0 STARLINK-5977,1 56791U 23078AA  24208.80325766  .00000335  00000-0  35853-4 0  9990,2 56791  69.9957  34.1922 0002913 266.3253  93.7573 14.98335963 64430,6950.174,96.107,574.064,570.015,0.0
56791.0,STARLINK-5977,PAYLOAD,2024-07-26 22:28:57,14.98336156,0.0002908,69.9951,33.8552,266.43,93.6527,3.8518e-05,3.67e-06,0.0,0 STARLINK-5977,1 56791U 23078AA  24208.93677694  .00000367  00000-0  38518-4 0  9990,2 56791  69.9951  33.8552 0002908 266.4300  93.6527 14.98336156 64193,6950.174,96.107,574.06,570.018,0.0
56791.0,STARLINK-5977,PAYLOAD,2024-07-27 22:30:59,14.98328572,0.0002987,69.9994,31.3301,268.692,91.3897,-1.9983e-05,-3.31e-06,0.0,0 STARLINK-5977,1 56791U 23078AA  24209.93818320 -.00000331  00000-0 -19983-4 0  9992,2 56791  69.9994  31.3301 0002987 268.6920  91.3897 14.98328572 64349,6950.197,96.107,574.138,569.986,0.0
56791.0,STARLINK-5977,PAYLOAD,2024-07-28 04:55:31,14.98329535,0.0002962,69.9994,30.6567,268.966,91.1159,8.5804e-06,9e-08,0.0,0 STARLINK-5977,1 56791U 23078AA  24210.20522219  .00000009  00000-0  85804-5 0  9999,2 56791  69.9994  30.6567 0002962 268.9660  91.1159 14.98329535 64644,6950.194,96.107,574.118,570.001,0.0
56791.0,STARLINK-5977,PAYLOAD,2024-07-28 20:56:51,14.98332758,0.0002909,70.0002,28.9725,273.2561,86.8265,6.268e-05,6.55e-06,0.0,0 STARLINK-5977,1 56791U 23078AA  24210.87281836  .00000655  00000-0  62680-4 0  9992,2 56791  70.0002  28.9725 0002909 273.2561  86.8265 14.98332758 64485,6950.184,96.107,574.071,570.028,0.0
56791.0,STARLINK-5977,PAYLOAD,2024-07-29 04:57:31,14.98333296,0.0002903,70.0003,28.1307,273.5577,86.5249,6.6438e-05,7e-06,0.0,0 STARLINK-5977,1 56791U 23078AA  24211.20661753  .00000700  00000-0  66438-4 0  9996,2 56791  70.0003  28.1307 0002903 273.5577  86.5249 14.98333296 64799,6950.183,96.107,574.065,570.03,0.0
56791.0,STARLINK-5977,PAYLOAD,2024-07-29 11:22:04,14.98329516,0.0002978,70.0001,27.4583,271.2568,88.825,5.2568e-05,5.34e-06,0.0,0 STARLINK-5977,1 56791U 23078AA  24211.47366003  .00000534  00000-0  52568-4 0  9999,2 56791  70.0001  27.4583 0002978 271.2568  88.8250 14.98329516 64575,6950.194,96.107,574.129,569.99,0.0
56791.0,STARLINK-5977,PAYLOAD,2024-07-29 20:58:52,14.98332417,0.0002984,70.0002,26.4487,269.9392,90.1425,8.3265e-05,9.01e-06,0.0,0 STARLINK-5977,1 56791U 23078AA  24211.87421721  .00000901  00000-0  83265-4 0  9998,2 56791  70.0002  26.4487 0002984 269.9392  90.1425 14.98332417 64635,6950.185,96.107,574.124,569.976,0.0
